ISS (ZARYA)             
1 25544U 98067A   25316.22557474  .00019835  00000+0  36009-3 0  9999
2 25544  51.6334 293.5281 0004132  61.4658 298.6746 15.49560899538121
CSS (TIANHE)            
1 48274U 21035A   25316.73496021  .00053107  00000+0  61325-3 0  9990
2 48274  41.4653 198.8277 0004246  12.9411 347.1536 15.61033919259346
ISS (NAUKA)             
1 49044U 21066A   25316.22557474  .00019835  00000+0  36009-3 0  9995
2 49044  51.6334 293.5281 0004132  61.4658 298.6746 15.49560899230446
CSS (WENTIAN)           
1 53239U 22085A   25316.15916016  .00037252  00000+0  43345-3 0  9995
2 53239  41.4652 202.3333 0004388   9.4250 350.6671 15.60957853173845
CSS (MENGTIAN)          
1 54216U 22143A   25316.15916016  .00037252  00000+0  43345-3 0  9996
2 54216  41.4652 202.3333 0004388   9.4250 350.6671 15.60957853158642
SOYUZ-MS 27             
1 63520U 25072A   25316.22557474  .00019835  00000+0  36009-3 0  9991
2 63520  51.6334 293.5281 0004132  61.4658 298.6746 15.49560899 20202
SHENZHOU-20 (SZ-20)     
1 63632U 25082A   25316.15916016  .00037252  00000+0  43345-3 0  9993
2 63632  41.4652 202.3333 0004388   9.4250 350.6671 15.60957853255305
PROGRESS-MS 31          
1 64751U 25146A   25316.22557474  .00019835  00000+0  36009-3 0  9990
2 64751  51.6334 293.5281 0004132  61.4658 298.6746 15.49560899  6753
TIANZHOU-9              
1 64786U 25149A   25316.15916016  .00037252  00000+0  43345-3 0  9998
2 64786  41.4652 202.3333 0004388   9.4250 350.6671 15.60957853255306
CREW DRAGON 11          
1 65077U 25166A   25316.22557474  .00019835  00000+0  36009-3 0  9994
2 65077  51.6334 293.5281 0004132  61.4658 298.6746 15.49560899  2144
DRAGON CRS-33           
1 65304U 25186A   25316.22557474  .00019835  00000+0  36009-3 0  9999
2 65304  51.6334 293.5281 0004132  61.4658 298.6746 15.49560899   112
