CCSDS_OMM_VERS = 2.0
CREATION_DATE  = 
ORIGINATOR     = 

OBJECT_NAME    = ISS (ZARYA)
OBJECT_ID      = 1998-067A
CENTER_NAME    = EARTH
REF_FRAME      = TEME
TIME_SYSTEM    = UTC
MEAN_ELEMENT_THEORY = SGP/SGP4

EPOCH          = 2025-11-12T05:24:49.657536
MEAN_MOTION    = 15.49560899
ECCENTRICITY   = .00041322
INCLINATION    = 51.6334
RA_OF_ASC_NODE = 293.5281
ARG_OF_PERICENTER = 61.4658
MEAN_ANOMALY   = 298.6746

EPHEMERIS_TYPE = 0
CLASSIFICATION_TYPE = U
NORAD_CAT_ID   = 25544
ELEMENT_SET_NO = 999
REV_AT_EPOCH   = 53812
BSTAR          = .36008987E-3
MEAN_MOTION_DOT = .19835E-3
MEAN_MOTION_DDOT = 0

CCSDS_OMM_VERS = 2.0
CREATION_DATE  = 
ORIGINATOR     = 

OBJECT_NAME    = CSS (TIANHE)
OBJECT_ID      = 2021-035A
CENTER_NAME    = EARTH
REF_FRAME      = TEME
TIME_SYSTEM    = UTC
MEAN_ELEMENT_THEORY = SGP/SGP4

EPOCH          = 2025-11-12T17:38:20.562144
MEAN_MOTION    = 15.61033919
ECCENTRICITY   = .0004246
INCLINATION    = 41.4653
RA_OF_ASC_NODE = 198.8277
ARG_OF_PERICENTER = 12.9411
MEAN_ANOMALY   = 347.1536

EPHEMERIS_TYPE = 0
CLASSIFICATION_TYPE = U
NORAD_CAT_ID   = 48274
ELEMENT_SET_NO = 999
REV_AT_EPOCH   = 25934
BSTAR          = .61325E-3
MEAN_MOTION_DOT = .53107E-3
MEAN_MOTION_DDOT = 0

CCSDS_OMM_VERS = 2.0
CREATION_DATE  = 
ORIGINATOR     = 

OBJECT_NAME    = ISS (NAUKA)
OBJECT_ID      = 2021-066A
CENTER_NAME    = EARTH
REF_FRAME      = TEME
TIME_SYSTEM    = UTC
MEAN_ELEMENT_THEORY = SGP/SGP4

EPOCH          = 2025-11-12T05:24:49.657536
MEAN_MOTION    = 15.49560899
ECCENTRICITY   = .00041322
INCLINATION    = 51.6334
RA_OF_ASC_NODE = 293.5281
ARG_OF_PERICENTER = 61.4658
MEAN_ANOMALY   = 298.6746

EPHEMERIS_TYPE = 0
CLASSIFICATION_TYPE = U
NORAD_CAT_ID   = 49044
ELEMENT_SET_NO = 999
REV_AT_EPOCH   = 23044
BSTAR          = .36008987E-3
MEAN_MOTION_DOT = .19835E-3
MEAN_MOTION_DDOT = 0

CCSDS_OMM_VERS = 2.0
CREATION_DATE  = 
ORIGINATOR     = 

OBJECT_NAME    = CSS (WENTIAN)
OBJECT_ID      = 2022-085A
CENTER_NAME    = EARTH
REF_FRAME      = TEME
TIME_SYSTEM    = UTC
MEAN_ELEMENT_THEORY = SGP/SGP4

EPOCH          = 2025-11-12T03:49:11.437824
MEAN_MOTION    = 15.60957853
ECCENTRICITY   = .00043888
INCLINATION    = 41.4652
RA_OF_ASC_NODE = 202.3333
ARG_OF_PERICENTER = 9.4250
MEAN_ANOMALY   = 350.6671

EPHEMERIS_TYPE = 0
CLASSIFICATION_TYPE = U
NORAD_CAT_ID   = 53239
ELEMENT_SET_NO = 999
REV_AT_EPOCH   = 17384
BSTAR          = .43344823E-3
MEAN_MOTION_DOT = .37252E-3
MEAN_MOTION_DDOT = 0

CCSDS_OMM_VERS = 2.0
CREATION_DATE  = 
ORIGINATOR     = 

OBJECT_NAME    = CSS (MENGTIAN)
OBJECT_ID      = 2022-143A
CENTER_NAME    = EARTH
REF_FRAME      = TEME
TIME_SYSTEM    = UTC
MEAN_ELEMENT_THEORY = SGP/SGP4

EPOCH          = 2025-11-12T03:49:11.437824
MEAN_MOTION    = 15.60957853
ECCENTRICITY   = .00043888
INCLINATION    = 41.4652
RA_OF_ASC_NODE = 202.3333
ARG_OF_PERICENTER = 9.4250
MEAN_ANOMALY   = 350.6671

EPHEMERIS_TYPE = 0
CLASSIFICATION_TYPE = U
NORAD_CAT_ID   = 54216
ELEMENT_SET_NO = 999
REV_AT_EPOCH   = 15864
BSTAR          = .43344823E-3
MEAN_MOTION_DOT = .37252E-3
MEAN_MOTION_DDOT = 0

CCSDS_OMM_VERS = 2.0
CREATION_DATE  = 
ORIGINATOR     = 

OBJECT_NAME    = SOYUZ-MS 27
OBJECT_ID      = 2025-072A
CENTER_NAME    = EARTH
REF_FRAME      = TEME
TIME_SYSTEM    = UTC
MEAN_ELEMENT_THEORY = SGP/SGP4

EPOCH          = 2025-11-12T05:24:49.657536
MEAN_MOTION    = 15.49560899
ECCENTRICITY   = .00041322
INCLINATION    = 51.6334
RA_OF_ASC_NODE = 293.5281
ARG_OF_PERICENTER = 61.4658
MEAN_ANOMALY   = 298.6746

EPHEMERIS_TYPE = 0
CLASSIFICATION_TYPE = U
NORAD_CAT_ID   = 63520
ELEMENT_SET_NO = 999
REV_AT_EPOCH   = 2020
BSTAR          = .36008987E-3
MEAN_MOTION_DOT = .19835E-3
MEAN_MOTION_DDOT = 0

CCSDS_OMM_VERS = 2.0
CREATION_DATE  = 
ORIGINATOR     = 

OBJECT_NAME    = SHENZHOU-20 (SZ-20)
OBJECT_ID      = 2025-082A
CENTER_NAME    = EARTH
REF_FRAME      = TEME
TIME_SYSTEM    = UTC
MEAN_ELEMENT_THEORY = SGP/SGP4

EPOCH          = 2025-11-12T03:49:11.437824
MEAN_MOTION    = 15.60957853
ECCENTRICITY   = .00043888
INCLINATION    = 41.4652
RA_OF_ASC_NODE = 202.3333
ARG_OF_PERICENTER = 9.4250
MEAN_ANOMALY   = 350.6671

EPHEMERIS_TYPE = 0
CLASSIFICATION_TYPE = U
NORAD_CAT_ID   = 63632
ELEMENT_SET_NO = 999
REV_AT_EPOCH   = 25530
BSTAR          = .43344823E-3
MEAN_MOTION_DOT = .37252E-3
MEAN_MOTION_DDOT = 0

CCSDS_OMM_VERS = 2.0
CREATION_DATE  = 
ORIGINATOR     = 

OBJECT_NAME    = PROGRESS-MS 31
OBJECT_ID      = 2025-146A
CENTER_NAME    = EARTH
REF_FRAME      = TEME
TIME_SYSTEM    = UTC
MEAN_ELEMENT_THEORY = SGP/SGP4

EPOCH          = 2025-11-12T05:24:49.657536
MEAN_MOTION    = 15.49560899
ECCENTRICITY   = .00041322
INCLINATION    = 51.6334
RA_OF_ASC_NODE = 293.5281
ARG_OF_PERICENTER = 61.4658
MEAN_ANOMALY   = 298.6746

EPHEMERIS_TYPE = 0
CLASSIFICATION_TYPE = U
NORAD_CAT_ID   = 64751
ELEMENT_SET_NO = 999
REV_AT_EPOCH   = 675
BSTAR          = .36008987E-3
MEAN_MOTION_DOT = .19835E-3
MEAN_MOTION_DDOT = 0

CCSDS_OMM_VERS = 2.0
CREATION_DATE  = 
ORIGINATOR     = 

OBJECT_NAME    = TIANZHOU-9
OBJECT_ID      = 2025-149A
CENTER_NAME    = EARTH
REF_FRAME      = TEME
TIME_SYSTEM    = UTC
MEAN_ELEMENT_THEORY = SGP/SGP4

EPOCH          = 2025-11-12T03:49:11.437824
MEAN_MOTION    = 15.60957853
ECCENTRICITY   = .00043888
INCLINATION    = 41.4652
RA_OF_ASC_NODE = 202.3333
ARG_OF_PERICENTER = 9.4250
MEAN_ANOMALY   = 350.6671

EPHEMERIS_TYPE = 0
CLASSIFICATION_TYPE = U
NORAD_CAT_ID   = 64786
ELEMENT_SET_NO = 999
REV_AT_EPOCH   = 25530
BSTAR          = .43344823E-3
MEAN_MOTION_DOT = .37252E-3
MEAN_MOTION_DDOT = 0

CCSDS_OMM_VERS = 2.0
CREATION_DATE  = 
ORIGINATOR     = 

OBJECT_NAME    = CREW DRAGON 11
OBJECT_ID      = 2025-166A
CENTER_NAME    = EARTH
REF_FRAME      = TEME
TIME_SYSTEM    = UTC
MEAN_ELEMENT_THEORY = SGP/SGP4

EPOCH          = 2025-11-12T05:24:49.657536
MEAN_MOTION    = 15.49560899
ECCENTRICITY   = .00041322
INCLINATION    = 51.6334
RA_OF_ASC_NODE = 293.5281
ARG_OF_PERICENTER = 61.4658
MEAN_ANOMALY   = 298.6746

EPHEMERIS_TYPE = 0
CLASSIFICATION_TYPE = U
NORAD_CAT_ID   = 65077
ELEMENT_SET_NO = 999
REV_AT_EPOCH   = 214
BSTAR          = .36008987E-3
MEAN_MOTION_DOT = .19835E-3
MEAN_MOTION_DDOT = 0

CCSDS_OMM_VERS = 2.0
CREATION_DATE  = 
ORIGINATOR     = 

OBJECT_NAME    = DRAGON CRS-33
OBJECT_ID      = 2025-186A
CENTER_NAME    = EARTH
REF_FRAME      = TEME
TIME_SYSTEM    = UTC
MEAN_ELEMENT_THEORY = SGP/SGP4

EPOCH          = 2025-11-12T05:24:49.657536
MEAN_MOTION    = 15.49560899
ECCENTRICITY   = .00041322
INCLINATION    = 51.6334
RA_OF_ASC_NODE = 293.5281
ARG_OF_PERICENTER = 61.4658
MEAN_ANOMALY   = 298.6746

EPHEMERIS_TYPE = 0
CLASSIFICATION_TYPE = U
NORAD_CAT_ID   = 65304
ELEMENT_SET_NO = 999
REV_AT_EPOCH   = 11
BSTAR          = .36008987E-3
MEAN_MOTION_DOT = .19835E-3
MEAN_MOTION_DDOT = 0

